{
  "type": "FeatureCollection",
  "features": [
    {
      "type": "Feature",
      "properties": {
        "norad_id": 35961,
        "name": "COSMOS 2251 DEB",
        "group": "cosmos-2251-debris",
        "lat": -19.275921318376962,
        "lon": 174.07047494691273,
        "alt_km": 968.0505812160909,
        "timestamp": "2025-12-26T13:39:19.376992+00:00",
        "meta_object_name": "COSMOS 2251 DEB",
        "meta_object_id": "1993-036AVB",
        "meta_epoch": "2025-12-23T19:07:42.767328",
        "meta_mean_motion": 14.05444821,
        "meta_eccentricity": 0.01917264,
        "meta_inclination": 73.9256,
        "meta_ra_of_asc_node": 184.7319,
        "meta_arg_of_pericenter": 115.7574,
        "meta_mean_anomaly": 246.3488,
        "meta_ephemeris_type": 0,
        "meta_classification_type": "U",
        "meta_norad_cat_id": 35961,
        "meta_element_set_no": 999,
        "meta_rev_at_epoch": 62837,
        "meta_bstar": 0.0013269491,
        "meta_mean_motion_dot": 2.518e-05,
        "meta_mean_motion_ddot": 0,
        "tle_line1": "1 35961U 93036AVB 25357.79702277  .00002518  00000+0  13269-2 0  9996",
        "tle_line2": "2 35961  73.9256 184.7319 0191726 115.7574 246.3488 14.05444821628371"
      },
      "geometry": {
        "type": "Point",
        "coordinates": [
          174.07047494691273,
          -19.275921318376962
        ]
      }
    },
    {
      "type": "Feature",
      "properties": {
        "norad_id": 35979,
        "name": "COSMOS 2251 DEB",
        "group": "cosmos-2251-debris",
        "lat": 69.74277719729336,
        "lon": -97.67904690486075,
        "alt_km": 643.6884013477238,
        "timestamp": "2025-12-26T13:39:19.377002+00:00",
        "meta_object_name": "COSMOS 2251 DEB",
        "meta_object_id": "1993-036AVV",
        "meta_epoch": "2025-12-22T21:28:01.748352",
        "meta_mean_motion": 14.74747539,
        "meta_eccentricity": 0.0059307,
        "meta_inclination": 74.008,
        "meta_ra_of_asc_node": 218.5159,
        "meta_arg_of_pericenter": 348.3492,
        "meta_mean_anomaly": 27.9615,
        "meta_ephemeris_type": 0,
        "meta_classification_type": "U",
        "meta_norad_cat_id": 35979,
        "meta_element_set_no": 999,
        "meta_rev_at_epoch": 88783,
        "meta_bstar": 0.00076773,
        "meta_mean_motion_dot": 5.251e-05,
        "meta_mean_motion_ddot": 0,
        "tle_line1": "1 35979U 93036AVV 25356.89446468  .00005251  00000+0  76773-3 0  9999",
        "tle_line2": "2 35979  74.0080 218.5159 0059307 348.3492  27.9615 14.74747539887837"
      },
      "geometry": {
        "type": "Point",
        "coordinates": [
          -97.67904690486075,
          69.74277719729336
        ]
      }
    },
    {
      "type": "Feature",
      "properties": {
        "norad_id": 35980,
        "name": "COSMOS 2251 DEB",
        "group": "cosmos-2251-debris",
        "lat": -73.51789683624713,
        "lon": 18.850846246832603,
        "alt_km": 674.6240326643492,
        "timestamp": "2025-12-26T13:39:19.377013+00:00",
        "meta_object_name": "COSMOS 2251 DEB",
        "meta_object_id": "1993-036AVW",
        "meta_epoch": "2025-12-25T13:22:27.353856",
        "meta_mean_motion": 14.59476627,
        "meta_eccentricity": 0.0053822,
        "meta_inclination": 73.912,
        "meta_ra_of_asc_node": 98.0618,
        "meta_arg_of_pericenter": 231.0081,
        "meta_mean_anomaly": 128.6285,
        "meta_ephemeris_type": 0,
        "meta_classification_type": "U",
        "meta_norad_cat_id": 35980,
        "meta_element_set_no": 999,
        "meta_rev_at_epoch": 61673,
        "meta_bstar": 0.0016517,
        "meta_mean_motion_dot": 7.974e-05,
        "meta_mean_motion_ddot": 0,
        "tle_line1": "1 35980U 93036AVW 25359.55726104  .00007974  00000+0  16517-2 0  9998",
        "tle_line2": "2 35980  73.9120  98.0618 0053822 231.0081 128.6285 14.59476627616732"
      },
      "geometry": {
        "type": "Point",
        "coordinates": [
          18.850846246832603,
          -73.51789683624713
        ]
      }
    },
    {
      "type": "Feature",
      "properties": {
        "norad_id": 35982,
        "name": "COSMOS 2251 DEB",
        "group": "cosmos-2251-debris",
        "lat": 5.07941437267899,
        "lon": -38.08761161206226,
        "alt_km": 642.4722497537932,
        "timestamp": "2025-12-26T13:39:19.377023+00:00",
        "meta_object_name": "COSMOS 2251 DEB",
        "meta_object_id": "1993-036AVY",
        "meta_epoch": "2025-12-24T04:11:05.846208",
        "meta_mean_motion": 14.628153,
        "meta_eccentricity": 0.00645539,
        "meta_inclination": 74.0585,
        "meta_ra_of_asc_node": 325.0386,
        "meta_arg_of_pericenter": 27.9995,
        "meta_mean_anomaly": 332.4619,
        "meta_ephemeris_type": 0,
        "meta_classification_type": "U",
        "meta_norad_cat_id": 35982,
        "meta_element_set_no": 999,
        "meta_rev_at_epoch": 86333,
        "meta_bstar": 0.00066289609,
        "meta_mean_motion_dot": 3.457e-05,
        "meta_mean_motion_ddot": 0,
        "tle_line1": "1 35982U 93036AVY 25358.17437322  .00003457  00000+0  66290-3 0  9994",
        "tle_line2": "2 35982  74.0585 325.0386 0064553  27.9995 332.4619 14.62815300863330"
      },
      "geometry": {
        "type": "Point",
        "coordinates": [
          -38.08761161206226,
          5.07941437267899
        ]
      }
    },
    {
      "type": "Feature",
      "properties": {
        "norad_id": 35987,
        "name": "COSMOS 2251 DEB",
        "group": "cosmos-2251-debris",
        "lat": 69.35647249287155,
        "lon": 71.29699439402766,
        "alt_km": 715.7123357117098,
        "timestamp": "2025-12-26T13:39:19.377032+00:00",
        "meta_object_name": "COSMOS 2251 DEB",
        "meta_object_id": "1993-036AWD",
        "meta_epoch": "2025-12-24T02:57:19.909440",
        "meta_mean_motion": 14.43193556,
        "meta_eccentricity": 0.00463714,
        "meta_inclination": 74.0006,
        "meta_ra_of_asc_node": 305.4518,
        "meta_arg_of_pericenter": 67.5999,
        "meta_mean_anomaly": 293.006,
        "meta_ephemeris_type": 0,
        "meta_classification_type": "U",
        "meta_norad_cat_id": 35987,
        "meta_element_set_no": 999,
        "meta_rev_at_epoch": 61229,
        "meta_bstar": 0.0010350673,
        "meta_mean_motion_dot": 3.5e-05,
        "meta_mean_motion_ddot": 0,
        "tle_line1": "1 35987U 93036AWD 25358.12314710  .00003500  00000+0  10351-2 0  9994",
        "tle_line2": "2 35987  74.0006 305.4518 0046371  67.5999 293.0060 14.43193556612294"
      },
      "geometry": {
        "type": "Point",
        "coordinates": [
          71.29699439402766,
          69.35647249287155
        ]
      }
    },
    {
      "type": "Feature",
      "properties": {
        "norad_id": 35989,
        "name": "COSMOS 2251 DEB",
        "group": "cosmos-2251-debris",
        "lat": -25.315731984742563,
        "lon": 86.18297841488872,
        "alt_km": 783.7961318894977,
        "timestamp": "2025-12-26T13:39:19.377043+00:00",
        "meta_object_name": "COSMOS 2251 DEB",
        "meta_object_id": "1993-036AWF",
        "meta_epoch": "2025-12-24T23:56:32.042112",
        "meta_mean_motion": 14.37117846,
        "meta_eccentricity": 0.00225269,
        "meta_inclination": 74.0381,
        "meta_ra_of_asc_node": 261.2904,
        "meta_arg_of_pericenter": 340.4505,
        "meta_mean_anomaly": 19.5782,
        "meta_ephemeris_type": 0,
        "meta_classification_type": "U",
        "meta_norad_cat_id": 35989,
        "meta_element_set_no": 999,
        "meta_rev_at_epoch": 87355,
        "meta_bstar": 0.00020115023,
        "meta_mean_motion_dot": 5.73e-06,
        "meta_mean_motion_ddot": 0,
        "tle_line1": "1 35989U 93036AWF 25358.99759308  .00000573  00000+0  20115-3 0  9994",
        "tle_line2": "2 35989  74.0381 261.2904 0022526 340.4505  19.5782 14.37117846873553"
      },
      "geometry": {
        "type": "Point",
        "coordinates": [
          86.18297841488872,
          -25.315731984742563
        ]
      }
    },
    {
      "type": "Feature",
      "properties": {
        "norad_id": 35993,
        "name": "COSMOS 2251 DEB",
        "group": "cosmos-2251-debris",
        "lat": 46.49899712749702,
        "lon": -36.26809918480524,
        "alt_km": 668.7765853837254,
        "timestamp": "2025-12-26T13:39:19.377053+00:00",
        "meta_object_name": "COSMOS 2251 DEB",
        "meta_object_id": "1993-036AWK",
        "meta_epoch": "2025-12-21T03:59:29.501088",
        "meta_mean_motion": 14.65356197,
        "meta_eccentricity": 0.0028516,
        "meta_inclination": 74.0154,
        "meta_ra_of_asc_node": 316.5577,
        "meta_arg_of_pericenter": 143.4068,
        "meta_mean_anomaly": 216.9056,
        "meta_ephemeris_type": 0,
        "meta_classification_type": "U",
        "meta_norad_cat_id": 35993,
        "meta_element_set_no": 999,
        "meta_rev_at_epoch": 60566,
        "meta_bstar": 0.00046927088,
        "meta_mean_motion_dot": 2.519e-05,
        "meta_mean_motion_ddot": 0,
        "tle_line1": "1 35993U 93036AWK 25355.16631367  .00002519  00000+0  46927-3 0  9990",
        "tle_line2": "2 35993  74.0154 316.5577 0028516 143.4068 216.9056 14.65356197605663"
      },
      "geometry": {
        "type": "Point",
        "coordinates": [
          -36.26809918480524,
          46.49899712749702
        ]
      }
    }
  ]
}